[{"OBJECT_NAME":"UNKNOWN","OBJECT_ID":"","EPOCH":"2026-03-02T06:07:39.648864","MEAN_MOTION":15.05111819,"ECCENTRICITY":0.0007726,"INCLINATION":85.8751,"RA_OF_ASC_NODE":156.8381,"ARG_OF_PERICENTER":350.2222,"MEAN_ANOMALY":9.8861,"EPHEMERIS_TYPE":0,"CLASSIFICATION_TYPE":"U","NORAD_CAT_ID":81343,"ELEMENT_SET_NO":999,"REV_AT_EPOCH":46627,"BSTAR":0.00054966,"MEAN_MOTION_DOT":7.856e-5,"MEAN_MOTION_DDOT":0},{"OBJECT_NAME":"UNKNOWN","OBJECT_ID":"","EPOCH":"2026-03-01T10:45:59.929920","MEAN_MOTION":13.78970865,"ECCENTRICITY":0.0119816,"INCLINATION":66.7966,"RA_OF_ASC_NODE":223.5833,"ARG_OF_PERICENTER":272.7414,"MEAN_ANOMALY":85.9949,"EPHEMERIS_TYPE":0,"CLASSIFICATION_TYPE":"U","NORAD_CAT_ID":81359,"ELEMENT_SET_NO":999,"REV_AT_EPOCH":61633,"BSTAR":0.00093528,"MEAN_MOTION_DOT":9.33e-6,"MEAN_MOTION_DDOT":0},{"OBJECT_NAME":"UNKNOWN","OBJECT_ID":"","EPOCH":"2026-02-28T22:08:36.569472","MEAN_MOTION":13.45373262,"ECCENTRICITY":0.0712273,"INCLINATION":65.8797,"RA_OF_ASC_NODE":246.972,"ARG_OF_PERICENTER":43.5135,"MEAN_ANOMALY":321.99,"EPHEMERIS_TYPE":0,"CLASSIFICATION_TYPE":"U","NORAD_CAT_ID":81366,"ELEMENT_SET_NO":999,"REV_AT_EPOCH":7647,"BSTAR":0.00033515,"MEAN_MOTION_DOT":8.73e-6,"MEAN_MOTION_DDOT":0},{"OBJECT_NAME":"UNKNOWN","OBJECT_ID":"","EPOCH":"2026-02-27T05:58:09.377760","MEAN_MOTION":14.7106393,"ECCENTRICITY":0.0070181,"INCLINATION":98.8097,"RA_OF_ASC_NODE":165.8458,"ARG_OF_PERICENTER":126.0968,"MEAN_ANOMALY":234.6762,"EPHEMERIS_TYPE":0,"CLASSIFICATION_TYPE":"U","NORAD_CAT_ID":81371,"ELEMENT_SET_NO":999,"REV_AT_EPOCH":65308,"BSTAR":0.00072913,"MEAN_MOTION_DOT":4.596e-5,"MEAN_MOTION_DDOT":0},{"OBJECT_NAME":"UNKNOWN","OBJECT_ID":"","EPOCH":"2026-02-28T05:39:24.257088","MEAN_MOTION":13.82249008,"ECCENTRICITY":0.003903,"INCLINATION":100.4048,"RA_OF_ASC_NODE":60.3358,"ARG_OF_PERICENTER":194.949,"MEAN_ANOMALY":231.4583,"EPHEMERIS_TYPE":0,"CLASSIFICATION_TYPE":"U","NORAD_CAT_ID":81392,"ELEMENT_SET_NO":999,"REV_AT_EPOCH":61288,"BSTAR":0.0029537,"MEAN_MOTION_DOT":3.154e-5,"MEAN_MOTION_DDOT":0},{"OBJECT_NAME":"UNKNOWN","OBJECT_ID":"","EPOCH":"2026-03-01T20:39:47.388096","MEAN_MOTION":13.89138672,"ECCENTRICITY":0.0157987,"INCLINATION":99.46,"RA_OF_ASC_NODE":115.2867,"ARG_OF_PERICENTER":12.6842,"MEAN_ANOMALY":347.822,"EPHEMERIS_TYPE":0,"CLASSIFICATION_TYPE":"U","NORAD_CAT_ID":81405,"ELEMENT_SET_NO":999,"REV_AT_EPOCH":57278,"BSTAR":0.0010934,"MEAN_MOTION_DOT":1.422e-5,"MEAN_MOTION_DDOT":0},{"OBJECT_NAME":"UNKNOWN","OBJECT_ID":"","EPOCH":"2026-02-20T02:54:21.464928","MEAN_MOTION":14.0707652,"ECCENTRICITY":0.0082906,"INCLINATION":98.7435,"RA_OF_ASC_NODE":296.0146,"ARG_OF_PERICENTER":202.4742,"MEAN_ANOMALY":157.2787,"EPHEMERIS_TYPE":0,"CLASSIFICATION_TYPE":"U","NORAD_CAT_ID":81427,"ELEMENT_SET_NO":999,"REV_AT_EPOCH":56152,"BSTAR":0.00032149,"MEAN_MOTION_DOT":5.12e-6,"MEAN_MOTION_DDOT":0},{"OBJECT_NAME":"UNKNOWN","OBJECT_ID":"","EPOCH":"2026-02-05T09:28:11.974656","MEAN_MOTION":13.5505491,"ECCENTRICITY":0.0056763,"INCLINATION":100.3205,"RA_OF_ASC_NODE":275.4666,"ARG_OF_PERICENTER":304.9355,"MEAN_ANOMALY":54.6455,"EPHEMERIS_TYPE":0,"CLASSIFICATION_TYPE":"U","NORAD_CAT_ID":81438,"ELEMENT_SET_NO":999,"REV_AT_EPOCH":59934,"BSTAR":0.0048396,"MEAN_MOTION_DOT":3.322e-5,"MEAN_MOTION_DDOT":0},{"OBJECT_NAME":"UNKNOWN","OBJECT_ID":"","EPOCH":"2026-03-02T04:13:04.844928","MEAN_MOTION":12.62648361,"ECCENTRICITY":0.05961,"INCLINATION":67.1627,"RA_OF_ASC_NODE":348.1998,"ARG_OF_PERICENTER":154.3128,"MEAN_ANOMALY":208.8823,"EPHEMERIS_TYPE":0,"CLASSIFICATION_TYPE":"U","NORAD_CAT_ID":81439,"ELEMENT_SET_NO":999,"REV_AT_EPOCH":27192,"BSTAR":0.0011705,"MEAN_MOTION_DOT":3.67e-6,"MEAN_MOTION_DDOT":0},{"OBJECT_NAME":"UNKNOWN","OBJECT_ID":"","EPOCH":"2026-03-02T13:26:32.868960","MEAN_MOTION":15.15951572,"ECCENTRICITY":0.0023033,"INCLINATION":66.7888,"RA_OF_ASC_NODE":116.6463,"ARG_OF_PERICENTER":20.7242,"MEAN_ANOMALY":339.4829,"EPHEMERIS_TYPE":0,"CLASSIFICATION_TYPE":"U","NORAD_CAT_ID":81449,"ELEMENT_SET_NO":999,"REV_AT_EPOCH":64558,"BSTAR":0.0058992,"MEAN_MOTION_DOT":0.00115976,"MEAN_MOTION_DDOT":0},{"OBJECT_NAME":"UNKNOWN","OBJECT_ID":"","EPOCH":"2026-02-28T13:55:57.252864","MEAN_MOTION":14.2897754,"ECCENTRICITY":0.0145097,"INCLINATION":98.9517,"RA_OF_ASC_NODE":338.5212,"ARG_OF_PERICENTER":131.8179,"MEAN_ANOMALY":351.8771,"EPHEMERIS_TYPE":0,"CLASSIFICATION_TYPE":"U","NORAD_CAT_ID":81478,"ELEMENT_SET_NO":999,"REV_AT_EPOCH":63405,"BSTAR":0.00118,"MEAN_MOTION_DOT":3.296e-5,"MEAN_MOTION_DDOT":0},{"OBJECT_NAME":"UNKNOWN","OBJECT_ID":"","EPOCH":"2026-03-01T21:21:37.329696","MEAN_MOTION":13.56548369,"ECCENTRICITY":0.0044497,"INCLINATION":99.9945,"RA_OF_ASC_NODE":299.7088,"ARG_OF_PERICENTER":162.5902,"MEAN_ANOMALY":257.0547,"EPHEMERIS_TYPE":0,"CLASSIFICATION_TYPE":"U","NORAD_CAT_ID":81488,"ELEMENT_SET_NO":999,"REV_AT_EPOCH":60736,"BSTAR":0.00032376,"MEAN_MOTION_DOT":1.84e-6,"MEAN_MOTION_DDOT":0},{"OBJECT_NAME":"UNKNOWN","OBJECT_ID":"","EPOCH":"2026-03-01T23:31:12.157248","MEAN_MOTION":13.84808267,"ECCENTRICITY":0.0027031,"INCLINATION":100.2999,"RA_OF_ASC_NODE":328.2356,"ARG_OF_PERICENTER":170.175,"MEAN_ANOMALY":255.6004,"EPHEMERIS_TYPE":0,"CLASSIFICATION_TYPE":"U","NORAD_CAT_ID":81497,"ELEMENT_SET_NO":999,"REV_AT_EPOCH":22726,"BSTAR":0.0033385,"MEAN_MOTION_DOT":3.724e-5,"MEAN_MOTION_DDOT":0},{"OBJECT_NAME":"UNKNOWN","OBJECT_ID":"","EPOCH":"2026-03-01T00:22:56.052192","MEAN_MOTION":14.47635754,"ECCENTRICITY":0.0002914,"INCLINATION":74.0463,"RA_OF_ASC_NODE":74.8113,"ARG_OF_PERICENTER":239.963,"MEAN_ANOMALY":120.124,"EPHEMERIS_TYPE":0,"CLASSIFICATION_TYPE":"U","NORAD_CAT_ID":81499,"ELEMENT_SET_NO":999,"REV_AT_EPOCH":49374,"BSTAR":0.00080712,"MEAN_MOTION_DOT":2.949e-5,"MEAN_MOTION_DDOT":0},{"OBJECT_NAME":"UNKNOWN","OBJECT_ID":"","EPOCH":"2026-02-28T15:39:12.400704","MEAN_MOTION":14.13624769,"ECCENTRICITY":0.0233465,"INCLINATION":98.1914,"RA_OF_ASC_NODE":140.4812,"ARG_OF_PERICENTER":283.1073,"MEAN_ANOMALY":74.4143,"EPHEMERIS_TYPE":0,"CLASSIFICATION_TYPE":"U","NORAD_CAT_ID":81535,"ELEMENT_SET_NO":999,"REV_AT_EPOCH":39840,"BSTAR":0.0004222,"MEAN_MOTION_DOT":9.9e-6,"MEAN_MOTION_DDOT":0},{"OBJECT_NAME":"UNKNOWN","OBJECT_ID":"","EPOCH":"2026-02-27T09:33:14.254560","MEAN_MOTION":12.55967369,"ECCENTRICITY":0.0017578,"INCLINATION":101.9679,"RA_OF_ASC_NODE":285.3904,"ARG_OF_PERICENTER":136.0574,"MEAN_ANOMALY":47.857,"EPHEMERIS_TYPE":0,"CLASSIFICATION_TYPE":"U","NORAD_CAT_ID":81536,"ELEMENT_SET_NO":999,"REV_AT_EPOCH":56143,"BSTAR":0.0033472,"MEAN_MOTION_DOT":5.05e-6,"MEAN_MOTION_DDOT":0},{"OBJECT_NAME":"UNKNOWN","OBJECT_ID":"","EPOCH":"2026-03-02T08:52:38.100288","MEAN_MOTION":14.07156543,"ECCENTRICITY":0.0075868,"INCLINATION":71.0398,"RA_OF_ASC_NODE":304.5004,"ARG_OF_PERICENTER":31.01,"MEAN_ANOMALY":329.5464,"EPHEMERIS_TYPE":0,"CLASSIFICATION_TYPE":"U","NORAD_CAT_ID":81537,"ELEMENT_SET_NO":999,"REV_AT_EPOCH":63166,"BSTAR":0.00019949,"MEAN_MOTION_DOT":2.97e-6,"MEAN_MOTION_DDOT":0}]
