UNKNOWN                 
1 81343U          26061.25532001  .00007856  00000+0  54966-3 0  9990
2 81343  85.8751 156.8381 0007726 350.2222   9.8861 15.05111819466274
UNKNOWN                 
1 81359U          26060.44861030  .00000933  00000+0  93528-3 0  9990
2 81359  66.7966 223.5833 0119816 272.7414  85.9949 13.78970865616334
UNKNOWN                 
1 81366U          26059.92264548  .00000873  00000+0  33515-3 0  9993
2 81366  65.8797 246.9720 0712273  43.5135 321.9900 13.45373262 76475
UNKNOWN                 
1 81371U          26058.24871965  .00004596  00000+0  72913-3 0  9991
2 81371  98.8097 165.8458 0070181 126.0968 234.6762 14.71063930653085
UNKNOWN                 
1 81392U          26059.23569742  .00003154  00000+0  29537-2 0  9993
2 81392 100.4048  60.3358 0039030 194.9490 231.4583 13.82249008612886
UNKNOWN                 
1 81405U          26060.86096514  .00001422  00000+0  10934-2 0  9998
2 81405  99.4600 115.2867 0157987  12.6842 347.8220 13.89138672572781
UNKNOWN                 
1 81427U          26051.12108177  .00000512  00000+0  32149-3 0  9992
2 81427  98.7435 296.0146 0082906 202.4742 157.2787 14.07076520561522
UNKNOWN                 
1 81438U          26036.39458304  .00003322  00000+0  48396-2 0  9998
2 81438 100.3205 275.4666 0056763 304.9355  54.6455 13.55054910599341
UNKNOWN                 
1 81439U          26061.17575052  .00000367  00000+0  11705-2 0  9993
2 81439  67.1627 348.1998 0596100 154.3128 208.8823 12.62648361271924
UNKNOWN                 
1 81449U          26061.56010265  .00115976  00000+0  58992-2 0  9999
2 81449  66.7888 116.6463 0023033  20.7242 339.4829 15.15951572645583
UNKNOWN                 
1 81478U          26059.58052376  .00003296  00000+0  11800-2 0  9997
2 81478  98.9517 338.5212 0145097 131.8179 351.8771 14.28977540634056
UNKNOWN                 
1 81488U          26060.89001539  .00000184  00000+0  32376-3 0  9994
2 81488  99.9945 299.7088 0044497 162.5902 257.0547 13.56548369607364
UNKNOWN                 
1 81497U          26060.98000182  .00003724  00000+0  33385-2 0  9990
2 81497 100.2999 328.2356 0027031 170.1750 255.6004 13.84808267227262
UNKNOWN                 
1 81499U          26060.01592653  .00002949  00000+0  80712-3 0  9990
2 81499  74.0463  74.8113 0002914 239.9630 120.1240 14.47635754493742
UNKNOWN                 
1 81535U          26059.65222686  .00000990  00000+0  42220-3 0  9991
2 81535  98.1914 140.4812 0233465 283.1073  74.4143 14.13624769398403
UNKNOWN                 
1 81536U          26058.39808165  .00000505  00000+0  33472-2 0  9994
2 81536 101.9679 285.3904 0017578 136.0574  47.8570 12.55967369561436
UNKNOWN                 
1 81537U          26061.36988542  .00000297  00000+0  19949-3 0  9996
2 81537  71.0398 304.5004 0075868  31.0100 329.5464 14.07156543631660
